[{"OBJECT_NAME":"STARLINK-4386","OBJECT_ID":"2022-105B","EPOCH":"2026-03-09T15:28:07.769568","MEAN_MOTION":15.05650293,"ECCENTRICITY":0.0002183,"INCLINATION":97.6023,"RA_OF_ASC_NODE":311.223,"ARG_OF_PERICENTER":74.0252,"MEAN_ANOMALY":286.1215,"EPHEMERIS_TYPE":0,"CLASSIFICATION_TYPE":"U","NORAD_CAT_ID":53649,"ELEMENT_SET_NO":999,"REV_AT_EPOCH":19329,"BSTAR":-1.5178e-5,"MEAN_MOTION_DOT":-2.8e-6,"MEAN_MOTION_DDOT":0},{"OBJECT_NAME":"SL-18 R\/B","OBJECT_ID":"2001-007B","EPOCH":"2026-03-09T23:25:11.323200","MEAN_MOTION":15.07301441,"ECCENTRICITY":0.00085554,"INCLINATION":97.6926,"RA_OF_ASC_NODE":87.6817,"ARG_OF_PERICENTER":353.225,"MEAN_ANOMALY":6.886,"EPHEMERIS_TYPE":0,"CLASSIFICATION_TYPE":"U","NORAD_CAT_ID":26703,"ELEMENT_SET_NO":999,"REV_AT_EPOCH":64619,"BSTAR":0.00021543689,"MEAN_MOTION_DOT":3.19e-5,"MEAN_MOTION_DDOT":0}]
